{
"type": "FeatureCollection",
"name": "osm_mine_quarry_polygons",
"features": [
{"type":"Feature","properties":{"osm_id":101272720,"osm_type":"way","landuse":"quarry","name":"Bharveli Manganese Mines Balaghat","operator":"MOIL","resource":"manganese"},"geometry":{"type":"Polygon","coordinates":[[[80.2291821,21.8537419],[80.2281166,21.8543526],[80.2265341,21.8542508],[80.2247009,21.8521131],[80.2248732,21.8508042],[80.2247479,21.8490445],[80.2248576,21.8481283],[80.2259857,21.8481283],[80.2266438,21.8472703],[80.2267221,21.8460195],[80.2271452,21.8459759],[80.2273175,21.847532],[80.2280069,21.8485792],[80.2284457,21.8499753],[80.2292448,21.8499171],[80.2301379,21.8499753],[80.2297775,21.8502952],[80.2291194,21.8511969],[80.2293388,21.8528984],[80.2291821,21.8537419]]]}}
]
}
